NORAD_CAT_ID,OBJECT_NAME,OBJECT_TYPE,EPOCH,MEAN_MOTION,ECCENTRICITY,INCLINATION,RA_OF_ASC_NODE,ARG_OF_PERICENTER,MEAN_ANOMALY,BSTAR,MEAN_MOTION_DOT,MEAN_MOTION_DDOT,TLE_LINE0,TLE_LINE1,TLE_LINE2,SEMIMAJOR_AXIS,PERIOD,APOGEE,PERIGEE,DECAYED
54006.0,STARLINK-5096,PAYLOAD,2023-02-26 10:52:54,15.08869086,0.0001437,53.2179,144.2667,105.4633,254.6518,0.0012642,0.00019905,0.0,0 STARLINK-5096,1 54006U 22125AU  23057.45341371  .00019905  00000-0  12642-2 0  9993,2 54006  53.2179 144.2667 0001437 105.4633 254.6518 15.08869086 22300,6917.791,95.436,540.651,538.662,0.0
54006.0,STARLINK-5096,PAYLOAD,2023-02-26 15:39:03,15.08884577,0.0001411,53.2181,143.3746,99.6604,260.4548,0.0015641,0.00024723,0.0,0 STARLINK-5096,1 54006U 22125AU  23057.65212799  .00024723  00000-0  15641-2 0  9992,2 54006  53.2181 143.3746 0001411  99.6604 260.4548 15.08884577 22338,6917.744,95.435,540.585,538.633,0.0
54006.0,STARLINK-5096,PAYLOAD,2023-02-27 05:57:32,15.08842922,0.0001657,53.2185,140.6978,128.0786,232.0356,0.00011684,1.572e-05,0.0,0 STARLINK-5096,1 54006U 22125AU  23058.24829276  .00001572  00000-0  11684-3 0  9993,2 54006  53.2185 140.6978 0001657 128.0786 232.0356 15.08842922 22485,6917.871,95.437,540.883,538.59,0.0
54006.0,STARLINK-5096,PAYLOAD,2023-02-27 12:19:05,15.08873329,0.0001596,53.219,139.5109,124.5001,235.6142,0.0042222,0.00067615,0.0,0 STARLINK-5096,1 54006U 22125AU  23058.51325554  .00067615  00000-0  42222-2 0  9994,2 54006  53.2190 139.5109 0001596 124.5001 235.6142 15.08873329 22529,6917.779,95.435,540.748,538.539,0.0
54006.0,STARLINK-5096,PAYLOAD,2023-02-28 12:09:51,15.088743,0.0001193,53.2184,135.0496,102.6344,257.4782,0.0020045,0.00031788,0.0,0 STARLINK-5096,1 54006U 22125AU  23059.50684417  .00031788  00000-0  20045-2 0  9991,2 54006  53.2184 135.0496 0001193 102.6344 257.4782 15.08874300 22670,6917.776,95.435,540.466,538.815,0.0
54006.0,STARLINK-5096,PAYLOAD,2023-02-28 21:42:10,15.08838422,0.0001903,53.2179,133.2636,78.503,281.6176,-0.00045969,-7.596e-05,0.0,0 STARLINK-5096,1 54006U 22125AU  23059.90428780 -.00007596  00000-0 -45969-3 0  9999,2 54006  53.2179 133.2636 0001903  78.5030 281.6176 15.08838422 22673,6917.885,95.438,541.067,538.434,0.0
54006.0,STARLINK-5096,PAYLOAD,2023-03-01 10:25:17,15.08779515,0.0001365,53.2175,130.8883,96.9556,263.1592,3.5979e-05,2.84e-06,0.0,0 STARLINK-5096,1 54006U 22125AU  23060.43422835  .00000284  00000-0  35979-4 0  9990,2 54006  53.2175 130.8883 0001365  96.9556 263.1592 15.08779515 22815,6918.065,95.441,540.875,538.986,0.0
54006.0,STARLINK-5096,PAYLOAD,2023-03-01 16:46:50,15.0880215,0.0001585,53.2178,129.6951,83.3188,276.7984,0.00039098,5.934e-05,0.0,0 STARLINK-5096,1 54006U 22125AU  23060.69919588  .00005934  00000-0  39098-3 0  9996,2 54006  53.2178 129.6951 0001585  83.3188 276.7984 15.08802150 22856,6917.996,95.44,540.958,538.765,0.0
54006.0,STARLINK-5096,PAYLOAD,2023-03-01 21:33:00,15.0880795,0.0001589,53.2176,128.8036,77.6858,282.4312,0.0016402,0.00025889,0.0,0 STARLINK-5096,1 54006U 22125AU  23060.89792268  .00025889  00000-0  16402-2 0  9996,2 54006  53.2176 128.8036 0001589  77.6858 282.4312 15.08807950 22822,6917.978,95.44,540.943,538.744,0.0
54006.0,STARLINK-5096,PAYLOAD,2023-03-02 03:54:33,15.0882899,0.0001494,53.2172,127.6139,78.6595,281.4565,0.0019424,0.00030751,0.0,0 STARLINK-5096,1 54006U 22125AU  23061.16288538  .00030751  00000-0  19424-2 0  9998,2 54006  53.2172 127.6139 0001494  78.6595 281.4565 15.08828990 22920,6917.914,95.438,540.813,538.746,0.0
54006.0,STARLINK-5096,PAYLOAD,2023-03-02 16:37:38,15.0886945,0.0001555,53.2169,125.2354,77.5926,282.524,0.0022353,0.00035495,0.0,0 STARLINK-5096,1 54006U 22125AU  23061.69280100  .00035495  00000-0  22353-2 0  9998,2 54006  53.2169 125.2354 0001555  77.5926 282.5240 15.08869450 22943,6917.79,95.436,540.731,538.58,0.0
54006.0,STARLINK-5096,PAYLOAD,2023-03-03 13:17:37,15.08913321,0.0001532,53.2172,121.3696,77.7875,282.3289,0.0030925,0.00049373,0.0,0 STARLINK-5096,1 54006U 22125AU  23062.55390125  .00049373  00000-0  30925-2 0  9997,2 54006  53.2172 121.3696 0001532  77.7875 282.3289 15.08913321 23133,6917.656,95.433,540.581,538.462,0.0
54006.0,STARLINK-5096,PAYLOAD,2023-03-04 03:36:05,15.08865605,0.0001239,53.2171,118.6935,115.2623,244.8498,0.0018925,0.00029981,0.0,0 STARLINK-5096,1 54006U 22125AU  23063.15005871  .00029981  00000-0  18925-2 0  9994,2 54006  53.2171 118.6935 0001239 115.2623 244.8498 15.08865605 23226,6917.802,95.436,540.524,538.81,0.0
54006.0,STARLINK-5096,PAYLOAD,2023-03-04 08:22:14,15.08854506,8.97e-05,53.218,117.8014,74.0848,286.0243,0.0011382,0.0001788,0.0,0 STARLINK-5096,1 54006U 22125AU  23063.34877957  .00017880  00000-0  11382-2 0  9992,2 54006  53.2180 117.8014 0000897  74.0848 286.0243 15.08854506 23252,6917.836,95.437,540.322,539.081,0.0
54006.0,STARLINK-5096,PAYLOAD,2023-03-04 13:08:23,15.08856643,0.000115,53.2183,116.9076,116.6269,243.4842,0.0012575,0.00019791,0.0,0 STARLINK-5096,1 54006U 22125AU  23063.54749728  .00019791  00000-0  12575-2 0  9996,2 54006  53.2183 116.9076 0001150 116.6269 243.4842 15.08856643 23229,6917.83,95.437,540.49,538.899,0.0
54006.0,STARLINK-5096,PAYLOAD,2023-03-04 21:05:20,15.08826166,0.0001487,53.2188,115.4207,88.6693,271.447,-0.00014249,-2.554e-05,0.0,0 STARLINK-5096,1 54006U 22125AU  23063.87870489 -.00002554  00000-0 -14249-3 0  9993,2 54006  53.2188 115.4207 0001487  88.6693 271.4470 15.08826166 23276,6917.923,95.438,540.816,538.759,0.0
54006.0,STARLINK-5096,PAYLOAD,2023-03-05 08:13:02,15.08830075,0.0001434,53.2197,113.3387,94.969,265.1466,0.00086568,0.00013512,0.0,0 STARLINK-5096,1 54006U 22125AU  23064.34238893  .00013512  00000-0  86568-3 0  9990,2 54006  53.2197 113.3387 0001434  94.9690 265.1466 15.08830075 23348,6917.911,95.438,540.768,538.784,0.0
54006.0,STARLINK-5096,PAYLOAD,2023-03-05 09:48:25,15.08836428,0.0001561,53.2185,113.0411,94.2352,265.8818,0.0010492,0.00016448,0.0,0 STARLINK-5096,1 54006U 22125AU  23064.40862918  .00016448  00000-0  10492-2 0  9991,2 54006  53.2185 113.0411 0001561  94.2352 265.8818 15.08836428 23413,6917.891,95.438,540.836,538.676,0.0
54006.0,STARLINK-5096,PAYLOAD,2023-03-06 19:11:31,15.08826676,0.0001941,53.2181,106.7983,83.3645,276.7568,-0.0006151,-0.00010061,0.0,0 STARLINK-5096,1 54006U 22125AU  23065.79966823 -.00010061  00000-0 -61510-3 0  9999,2 54006  53.2181 106.7983 0001941  83.3645 276.7568 15.08826676 23628,6917.921,95.438,541.129,538.443,0.0
54006.0,STARLINK-5096,PAYLOAD,2023-03-07 03:08:26,15.08823809,6.14e-05,53.2189,105.3121,107.4027,252.7033,0.00025643,3.794e-05,0.0,0 STARLINK-5096,1 54006U 22125AU  23066.13086654  .00003794  00000-0  25643-3 0  9993,2 54006  53.2189 105.3121 0000614 107.4027 252.7033 15.08823809 23674,6917.93,95.439,540.22,539.37,0.0
54006.0,STARLINK-5096,PAYLOAD,2023-03-07 19:02:19,15.08835082,0.0002356,53.2172,102.3367,76.4294,283.696,0.0010331,0.0001619,0.0,0 STARLINK-5096,1 54006U 22125AU  23066.79327740  .00016190  00000-0  10331-2 0  9990,2 54006  53.2172 102.3367 0002356  76.4294 283.6960 15.08835082 23714,6917.895,95.438,541.39,538.131,0.0
54006.0,STARLINK-5096,PAYLOAD,2023-03-08 10:56:09,15.0885393,0.0001004,53.2176,99.3655,83.5339,276.5768,0.0016542,0.00026147,0.0,0 STARLINK-5096,1 54006U 22125AU  23067.45567102  .00026147  00000-0  16542-2 0  9995,2 54006  53.2176  99.3655 0001004  83.5339 276.5768 15.08853930 23877,6917.838,95.437,540.397,539.008,0.0
54006.0,STARLINK-5096,PAYLOAD,2023-03-08 18:53:05,15.08853471,7.92e-05,53.2168,97.8778,102.3863,257.7218,0.0012612,0.00019848,0.0,0 STARLINK-5096,1 54006U 22125AU  23067.78687001  .00019848  00000-0  12612-2 0  9996,2 54006  53.2168  97.8778 0000792 102.3863 257.7218 15.08853471 23929,6917.839,95.437,540.252,539.156,0.0
54006.0,STARLINK-5096,PAYLOAD,2023-03-09 18:43:52,15.08859006,0.000137,53.2166,93.4175,82.349,277.7657,0.0013407,0.00021125,0.0,0 STARLINK-5096,1 54006U 22125AU  23068.78046837  .00021125  00000-0  13407-2 0  9997,2 54006  53.2166  93.4175 0001370  82.3490 277.7657 15.08859006 24072,6917.822,95.436,540.635,538.74,0.0
54006.0,STARLINK-5096,PAYLOAD,2023-03-10 09:02:20,15.08864902,0.0001147,53.2167,90.7411,87.4793,272.6331,0.0020415,0.00032374,0.0,0 STARLINK-5096,1 54006U 22125AU  23069.37662450  .00032374  00000-0  20415-2 0  9993,2 54006  53.2167  90.7411 0001147  87.4793 272.6331 15.08864902 24164,6917.804,95.436,540.463,538.876,0.0
54006.0,STARLINK-5096,PAYLOAD,2023-03-10 18:34:39,15.08850529,0.0001298,53.2171,88.9567,97.384,262.7299,0.00086363,0.00013487,0.0,0 STARLINK-5096,1 54006U 22125AU  23069.77406622  .00013487  00000-0  86363-3 0  9993,2 54006  53.2171  88.9567 0001298  97.3840 262.7299 15.08850529 24220,6917.848,95.437,540.611,538.815,0.0
54006.0,STARLINK-5096,PAYLOAD,2023-03-11 00:56:12,15.08828264,0.0001228,53.2174,87.7675,114.6627,245.4493,3.99e-05,3.47e-06,0.0,0 STARLINK-5096,1 54006U 22125AU  23070.03902885  .00000347  00000-0  39900-4 0  9993,2 54006  53.2174  87.7675 0001228 114.6627 245.4493 15.08828264 24268,6917.916,95.438,540.631,538.932,0.0
54006.0,STARLINK-5096,PAYLOAD,2023-03-11 10:28:31,15.08841525,0.0001341,53.2174,85.9829,105.688,254.426,0.0020177,0.00031971,0.0,0 STARLINK-5096,1 54006U 22125AU  23070.43647373  .00031971  00000-0  20177-2 0  9996,2 54006  53.2174  85.9829 0001341 105.6880 254.4260 15.08841525 24320,6917.876,95.437,540.668,538.813,0.0
54006.0,STARLINK-5096,PAYLOAD,2023-03-12 00:47:00,15.08840322,0.0001149,53.2177,83.3067,103.5672,256.5448,0.0012316,0.00019367,0.0,0 STARLINK-5096,1 54006U 22125AU  23071.03263920  .00019367  00000-0  12316-2 0  9996,2 54006  53.2177  83.3067 0001149 103.5672 256.5448 15.08840322 24416,6917.879,95.438,540.539,538.95,0.0
54006.0,STARLINK-5096,PAYLOAD,2023-03-12 05:33:09,15.08838932,0.0002012,53.2185,82.4134,124.6318,235.4864,0.00063,9.752e-05,0.0,0 STARLINK-5096,1 54006U 22125AU  23071.23135838  .00009752  00000-0  63000-3 0  9998,2 54006  53.2185  82.4134 0002012 124.6318 235.4864 15.08838932 24389,6917.884,95.438,541.141,538.357,0.0
